{"type": "FeatureCollection", "features": [{"type": "Feature", "properties": {"norad_id": 26766, "name": "INTELSAT 10 (IS-10)", "group": "intelsat", "lat": 3.1975594720229537, "lon": -140.5376863957113, "alt_km": 36107.72775215107, "timestamp": "2025-12-06T22:38:42.402248+00:00", "meta": {"OBJECT_NAME": "INTELSAT 10 (IS-10)", "OBJECT_ID": "2001-019A", "EPOCH": "2025-12-06T11:29:51.700704", "MEAN_MOTION": 0.99078798, "ECCENTRICITY": 0.00078511, "INCLINATION": 8.6144, "RA_OF_ASC_NODE": 61.2183, "ARG_OF_PERICENTER": 220.2225, "MEAN_ANOMALY": 132.1998, "EPHEMERIS_TYPE": 0, "CLASSIFICATION_TYPE": "U", "NORAD_CAT_ID": 26766, "ELEMENT_SET_NO": 999, "REV_AT_EPOCH": 4366, "BSTAR": 0, "MEAN_MOTION_DOT": -2.37e-06, "MEAN_MOTION_DDOT": 0}, "tle": {"line1": "1 26766U 01019A   25340.47907061 -.00000237  00000+0  00000+0 0  9997", "line2": "2 26766   8.6144  61.2183 0007851 220.2225 132.1998  0.99078798 43668"}}, "geometry": {"type": "Point", "coordinates": [-140.5376863957113, 3.1975594720229537]}}, {"type": "Feature", "properties": {"norad_id": 26900, "name": "INTELSAT 902 (IS-902)", "group": "intelsat", "lat": -5.234959635097698, "lon": 5.631248615072659, "alt_km": 35795.759861633574, "timestamp": "2025-12-06T22:38:42.402271+00:00", "meta": {"OBJECT_NAME": "INTELSAT 902 (IS-902)", "OBJECT_ID": "2001-039A", "EPOCH": "2025-12-01T16:59:59.311968", "MEAN_MOTION": 1.00270327, "ECCENTRICITY": 0.00043097, "INCLINATION": 5.6187, "RA_OF_ASC_NODE": 74.2002, "ARG_OF_PERICENTER": 175.119, "MEAN_ANOMALY": 26.3816, "EPHEMERIS_TYPE": 0, "CLASSIFICATION_TYPE": "U", "NORAD_CAT_ID": 26900, "ELEMENT_SET_NO": 999, "REV_AT_EPOCH": 8871, "BSTAR": 0, "MEAN_MOTION_DOT": -2.63e-06, "MEAN_MOTION_DDOT": 0}, "tle": {"line1": "1 26900U 01039A   25335.70832537 -.00000263  00000+0  00000+0 0  9993", "line2": "2 26900   5.6187  74.2002 0004309 175.1190  26.3816  1.00270327 88713"}}, "geometry": {"type": "Point", "coordinates": [5.631248615072659, -5.234959635097698]}}, {"type": "Feature", "properties": {"norad_id": 27380, "name": "INTELSAT 904 (IS-904)", "group": "intelsat", "lat": -4.718500396410604, "lon": 24.326737566322524, "alt_km": 35789.17757502735, "timestamp": "2025-12-06T22:38:42.402288+00:00", "meta": {"OBJECT_NAME": "INTELSAT 904 (IS-904)", "OBJECT_ID": "2002-007A", "EPOCH": "2025-12-06T11:48:15.274944", "MEAN_MOTION": 1.00268726, "ECCENTRICITY": 0.00017301, "INCLINATION": 6.4388, "RA_OF_ASC_NODE": 71.5029, "ARG_OF_PERICENTER": 210.4172, "MEAN_ANOMALY": 299.1554, "EPHEMERIS_TYPE": 0, "CLASSIFICATION_TYPE": "U", "NORAD_CAT_ID": 27380, "ELEMENT_SET_NO": 999, "REV_AT_EPOCH": 4983, "BSTAR": 0, "MEAN_MOTION_DOT": -2.22e-06, "MEAN_MOTION_DDOT": 0}, "tle": {"line1": "1 27380U 02007A   25340.49184346 -.00000222  00000+0  00000+0 0  9997", "line2": "2 27380   6.4388  71.5029 0001730 210.4172 299.1554  1.00268726 49834"}}, "geometry": {"type": "Point", "coordinates": [24.326737566322524, -4.718500396410604]}}, {"type": "Feature", "properties": {"norad_id": 27426, "name": "DIRECTV 5 (TEMPO 1)", "group": "intelsat", "lat": -3.2664552334334376, "lon": -54.5309110504221, "alt_km": 35772.67630104158, "timestamp": "2025-12-06T22:38:42.402301+00:00", "meta": {"OBJECT_NAME": "DIRECTV 5 (TEMPO 1)", "OBJECT_ID": "2002-023A", "EPOCH": "2025-12-06T10:50:51.492768", "MEAN_MOTION": 1.00271507, "ECCENTRICITY": 0.00039111, "INCLINATION": 4.3854, "RA_OF_ASC_NODE": 77.7251, "ARG_OF_PERICENTER": 195.0689, "MEAN_ANOMALY": 215.2902, "EPHEMERIS_TYPE": 0, "CLASSIFICATION_TYPE": "U", "NORAD_CAT_ID": 27426, "ELEMENT_SET_NO": 999, "REV_AT_EPOCH": 8619, "BSTAR": 0, "MEAN_MOTION_DOT": -5.2e-07, "MEAN_MOTION_DDOT": 0}, "tle": {"line1": "1 27426U 02023A   25340.45198487 -.00000052  00000+0  00000+0 0  9994", "line2": "2 27426   4.3854  77.7251 0003911 195.0689 215.2902  1.00271507 86196"}}, "geometry": {"type": "Point", "coordinates": [-54.5309110504221, -3.2664552334334376]}}, {"type": "Feature", "properties": {"norad_id": 27438, "name": "INTELSAT 905 (IS-905)", "group": "intelsat", "lat": -2.80581171923685, "lon": -81.62713059961698, "alt_km": 35773.00393868519, "timestamp": "2025-12-06T22:38:42.402314+00:00", "meta": {"OBJECT_NAME": "INTELSAT 905 (IS-905)", "OBJECT_ID": "2002-027A", "EPOCH": "2025-12-03T09:40:44.149728", "MEAN_MOTION": 1.00273288, "ECCENTRICITY": 0.00031296, "INCLINATION": 6.2606, "RA_OF_ASC_NODE": 72.1621, "ARG_OF_PERICENTER": 189.1417, "MEAN_ANOMALY": 179.1858, "EPHEMERIS_TYPE": 0, "CLASSIFICATION_TYPE": "U", "NORAD_CAT_ID": 27438, "ELEMENT_SET_NO": 999, "REV_AT_EPOCH": 4940, "BSTAR": 0, "MEAN_MOTION_DOT": 1.09e-06, "MEAN_MOTION_DDOT": 0}, "tle": {"line1": "1 27438U 02027A   25337.40328877  .00000109  00000+0  00000+0 0  9992", "line2": "2 27438   6.2606  72.1621 0003129 189.1417 179.1858  1.00273288 49408"}}, "geometry": {"type": "Point", "coordinates": [-81.62713059961698, -2.80581171923685]}}, {"type": "Feature", "properties": {"norad_id": 27445, "name": "GALAXY 3C (G-3C)", "group": "intelsat", "lat": -2.8298739635320516, "lon": -39.245210795822345, "alt_km": 35790.57446528791, "timestamp": "2025-12-06T22:38:42.402327+00:00", "meta": {"OBJECT_NAME": "GALAXY 3C (G-3C)", "OBJECT_ID": "2002-030A", "EPOCH": "2025-12-06T10:58:45.928128", "MEAN_MOTION": 1.00270555, "ECCENTRICITY": 0.00012064, "INCLINATION": 3.2479, "RA_OF_ASC_NODE": 80.568, "ARG_OF_PERICENTER": 102.1623, "MEAN_ANOMALY": 322.5966, "EPHEMERIS_TYPE": 0, "CLASSIFICATION_TYPE": "U", "NORAD_CAT_ID": 27445, "ELEMENT_SET_NO": 999, "REV_AT_EPOCH": 4456, "BSTAR": 0, "MEAN_MOTION_DOT": -1.47e-06, "MEAN_MOTION_DDOT": 0}, "tle": {"line1": "1 27445U 02030A   25340.45747602 -.00000147  00000+0  00000+0 0  9997", "line2": "2 27445   3.2479  80.5680 0001206 102.1623 322.5966  1.00270555 44567"}}, "geometry": {"type": "Point", "coordinates": [-39.245210795822345, -2.8298739635320516]}}, {"type": "Feature", "properties": {"norad_id": 27513, "name": "INTELSAT 906 (IS-906)", "group": "intelsat", "lat": 3.737214928152909, "lon": 119.62180658073028, "alt_km": 35806.45191835755, "timestamp": "2025-12-06T22:38:42.402339+00:00", "meta": {"OBJECT_NAME": "INTELSAT 906 (IS-906)", "OBJECT_ID": "2002-041A", "EPOCH": "2025-12-06T08:50:02.344416", "MEAN_MOTION": 1.00270373, "ECCENTRICITY": 0.00060363, "INCLINATION": 5.3127, "RA_OF_ASC_NODE": 75.3075, "ARG_OF_PERICENTER": 187.7214, "MEAN_ANOMALY": 9.0301, "EPHEMERIS_TYPE": 0, "CLASSIFICATION_TYPE": "U", "NORAD_CAT_ID": 27513, "ELEMENT_SET_NO": 999, "REV_AT_EPOCH": 8509, "BSTAR": 0, "MEAN_MOTION_DOT": 1.8e-07, "MEAN_MOTION_DDOT": 0}, "tle": {"line1": "1 27513U 02041A   25340.36808269  .00000018  00000+0  00000+0 0  9998", "line2": "2 27513   5.3127  75.3075 0006036 187.7214   9.0301  1.00270373 85098"}}, "geometry": {"type": "Point", "coordinates": [119.62180658073028, 3.737214928152909]}}, {"type": "Feature", "properties": {"norad_id": 27954, "name": "GALAXY 13 (HORIZONS-1)", "group": "intelsat", "lat": -0.010635291246418536, "lon": -94.32715582015956, "alt_km": 35776.90309108168, "timestamp": "2025-12-06T22:38:42.402351+00:00", "meta": {"OBJECT_NAME": "GALAXY 13 (HORIZONS-1)", "OBJECT_ID": "2003-044A", "EPOCH": "2025-12-06T13:21:49.947840", "MEAN_MOTION": 1.00273931, "ECCENTRICITY": 0.00020643, "INCLINATION": 0.9195, "RA_OF_ASC_NODE": 86.5516, "ARG_OF_PERICENTER": 166.404, "MEAN_ANOMALY": 233.1174, "EPHEMERIS_TYPE": 0, "CLASSIFICATION_TYPE": "U", "NORAD_CAT_ID": 27954, "ELEMENT_SET_NO": 999, "REV_AT_EPOCH": 4464, "BSTAR": 0, "MEAN_MOTION_DOT": 1.39e-06, "MEAN_MOTION_DDOT": 0}, "tle": {"line1": "1 27954U 03044A   25340.55682810  .00000139  00000+0  00000+0 0  9998", "line2": "2 27954   0.9195  86.5516 0002064 166.4040 233.1174  1.00273931 44642"}}, "geometry": {"type": "Point", "coordinates": [-94.32715582015956, -0.010635291246418536]}}, {"type": "Feature", "properties": {"norad_id": 28358, "name": "INTELSAT 10-02", "group": "intelsat", "lat": 0.010660896496231599, "lon": 54.661797995845234, "alt_km": 35789.58888633744, "timestamp": "2025-12-06T22:38:42.402363+00:00", "meta": {"OBJECT_NAME": "INTELSAT 10-02", "OBJECT_ID": "2004-022A", "EPOCH": "2025-12-06T10:19:38.595648", "MEAN_MOTION": 1.00270506, "ECCENTRICITY": 0.00011653, "INCLINATION": 0.0389, "RA_OF_ASC_NODE": 75.8915, "ARG_OF_PERICENTER": 208.9538, "MEAN_ANOMALY": 304.5467, "EPHEMERIS_TYPE": 0, "CLASSIFICATION_TYPE": "U", "NORAD_CAT_ID": 28358, "ELEMENT_SET_NO": 999, "REV_AT_EPOCH": 7862, "BSTAR": 0, "MEAN_MOTION_DOT": -4e-08, "MEAN_MOTION_DDOT": 0}, "tle": {"line1": "1 28358U 04022A   25340.43030782 -.00000004  00000+0  00000+0 0  9998", "line2": "2 28358   0.0389  75.8915 0001165 208.9538 304.5467  1.00270506 78624"}}, "geometry": {"type": "Point", "coordinates": [54.661797995845234, 0.010660896496231599]}}, {"type": "Feature", "properties": {"norad_id": 28626, "name": "XM-3 (RHYTHM)", "group": "intelsat", "lat": 0.12329024433609619, "lon": -162.54067885550162, "alt_km": 36163.41982846313, "timestamp": "2025-12-06T22:38:42.402375+00:00", "meta": {"OBJECT_NAME": "XM-3 (RHYTHM)", "OBJECT_ID": "2005-008A", "EPOCH": "2025-12-06T13:53:51.604800", "MEAN_MOTION": 0.9895453, "ECCENTRICITY": 0.00011627, "INCLINATION": 0.1582, "RA_OF_ASC_NODE": 81.053, "ARG_OF_PERICENTER": 259.8343, "MEAN_ANOMALY": 86.7474, "EPHEMERIS_TYPE": 0, "CLASSIFICATION_TYPE": "U", "NORAD_CAT_ID": 28626, "ELEMENT_SET_NO": 999, "REV_AT_EPOCH": 4068, "BSTAR": 0, "MEAN_MOTION_DOT": -2.68e-06, "MEAN_MOTION_DDOT": 0}, "tle": {"line1": "1 28626U 05008A   25340.57906950 -.00000268  00000+0  00000+0 0  9997", "line2": "2 28626   0.1582  81.0530 0001162 259.8343  86.7474  0.98954530 40680"}}, "geometry": {"type": "Point", "coordinates": [-162.54067885550162, 0.12329024433609619]}}]}